ONEWEB-0349             
1 49281U 21090C   24343.85472535  .00000082  00000+0  16958-3 0  9992
2 49281  87.9264  24.9334 0001862  94.2146 265.9200 13.20770917156520
ONEWEB-0353             
1 49282U 21090D   24343.85535418  .00000071  00000+0  15769-3 0  9990
2 49282  87.9015  40.1387 0001720  90.5082 269.6245 13.14502712154622
ONEWEB-0356             
1 49283U 21090E   24343.85313109 -.00000118  00000+0 -32292-3 0  9996
2 49283  87.9264  24.9266 0002776  91.4240 268.7211 13.20769452156520
ONEWEB-0358             
1 49284U 21090F   24343.88313798  .00000071  00000+0  14229-3 0  9990
2 49284  87.9264  24.9089 0002068 101.0409 259.0957 13.20772951157252
ONEWEB-0359             
1 49285U 21090G   24344.18301708  .00000041  00000+0  69218-4 0  9999
2 49285  87.9262  24.8648 0001885 110.4665 249.6670 13.20772619158557
ONEWEB-0360             
1 49286U 21090H   24344.17354395  .00000044  00000+0  76070-4 0  9996
2 49286  87.9262  24.8720 0001834 101.7561 258.3778 13.20771917157871
ONEWEB-0361             
1 49287U 21090J   24343.85158255  .00000129  00000+0  28569-3 0  9991
2 49287  87.9262  24.9308 0001976  94.4516 265.6843 13.20771899156995
ONEWEB-0362             
1 49288U 21090K   24344.19830282  .00000033  00000+0  50008-4 0  9995
2 49288  87.9185  55.3450 0001517 106.8913 253.2386 13.19726413154539
